[
    {
        "Altitude(m)": 607910.9940886713,
        "Argument of Periapsis(deg)": 0.0,
        "Eccentricity": 0.0,
        "Inclination(deg)": 60.0,
        "Latitude(deg)": -14.292859940400039,
        "Longitude(deg)": 143.44263253401851,
        "Mean Anomaly(deg)": 196.36359999999996,
        "RAAN(deg)": 55.00000000000001,
        "Satellite Name": "Test1 254",
        "Satellite Number": 254,
        "Semi-Major Axis(m)": 6980739.136638005,
        "Time(s)": 0
    },
    {
        "Altitude(m)": 608060.227229316,
        "Argument of Periapsis(deg)": 0.00010418945913296404,
        "Eccentricity": 0.0,
        "Inclination(deg)": 60.0,
        "Latitude(deg)": -14.82652164778337,
        "Longitude(deg)": 143.73124127834674,
        "Mean Anomaly(deg)": 196.9837061454618,
        "RAAN(deg)": 54.999579950860266,
        "Satellite Name": "Test1 254",
        "Satellite Number": 254,
        "Semi-Major Axis(m)": 6980739.136638005,
        "Time(s)": 10
    }
]